ONEWEB-0126             
1 47272U 20100Q   23258.63077739  .00000039  00000+0  73837-4 0  9990
2 47272  87.8992 190.5678 0002015  72.0501 288.0847 13.12442103132808
ONEWEB-0127             
1 47273U 20100R   23258.36501524 -.00000024  00000+0 -10279-3 0  9991
2 47273  87.9066 190.6139 0001962  73.4663 286.6681 13.12441087132797
ONEWEB-0128             
1 47274U 20100S   23258.30994436 -.00000385  00000+0 -11068-2 0  9990
2 47274  87.9073 190.6101 0002372  73.4580 286.6809 13.12444017132809
ONEWEB-0129             
1 47275U 20100T   23258.36711464 -.00000096  00000+0 -30263-3 0  9993
2 47275  87.9015 190.6356 0002252  29.8845 330.2411 13.12440590132744
ONEWEB-0130             
1 47276U 20100U   23258.31630354 -.00000175  00000+0 -52185-3 0  9992
2 47276  87.8999 190.6365 0002046  76.2187 283.9169 13.12440252132706
ONEWEB-0131             
1 47277U 20100V   23258.31418585 -.00000244  00000+0 -71333-3 0  9996
2 47277  87.9077 190.6003 0002111  78.4169 281.7196 13.12443678132746
ONEWEB-0132             
1 47278U 20100W   23258.34382019  .00000563  00000+0  15291-2 0  9994
2 47278  87.9080 190.5968 0001930  84.0229 276.1120 13.12445467132640
ONEWEB-0133             
1 47279U 20100X   23258.36077802  .00000113  00000+0  27989-3 0  9997
2 47279  87.9065 190.6197 0002054  78.6507 281.4852 13.12440895132804
